ISS (ZARYA)             
1 25544U 98067A   26004.75849264  .00010439  00000+0  19662-3 0  9990
2 25544  51.6325  28.5008 0007565 340.7123  19.3578 15.49095636546422
CSS (TIANHE)            
1 48274U 21035A   26005.08667035  .00015546  00000+0  18879-3 0  9990
2 48274  41.4650 234.8649 0010812 222.1039 137.8969 15.60186031267676
ISS (NAUKA)             
1 49044U 21066A   26004.75849265  .00010439  00000+0  19662-3 0  9997
2 49044  51.6325  28.5008 0007565 340.7123  19.3578 15.49095636230445
FREGAT DEB              
1 49271U 11037PF  26004.64318340  .00028978  00000+0  61383-1 0  9991
2 49271  51.6484 131.7222 0876295 274.1689  75.9608 12.35042644204760
CSS (WENTIAN)           
1 53239U 22085A   26004.95864804  .00014618  00000+0  17784-3 0  9994
2 53239  41.4651 235.6438 0010717 221.5522 138.4503 15.60180608173843
CSS (MENGTIAN)          
1 54216U 22143A   26004.95864804  .00014618  00000+0  17784-3 0  9995
2 54216  41.4651 235.6438 0010717 221.5522 138.4503 15.60180608158640
SHENZHOU-20 (SZ-20)     
1 63632U 25082A   26004.95864804  .00014618  00000+0  17784-3 0  9992
2 63632  41.4651 235.6438 0010717 221.5522 138.4503 15.60180608255303
PROGRESS-MS 31          
1 64751U 25146A   26004.75849265  .00010439  00000+0  19662-3 0  9992
2 64751  51.6325  28.5008 0007565 340.7123  19.3578 15.49095636  6752
TIANZHOU-9              
1 64786U 25149A   26004.95864804  .00014618  00000+0  17784-3 0  9997
2 64786  41.4651 235.6438 0010717 221.5522 138.4503 15.60180608255304
CREW DRAGON 11          
1 65077U 25166A   26004.75849265  .00010439  00000+0  19662-3 0  9996
2 65077  51.6325  28.5008 0007565 340.7123  19.3578 15.49095636  2143
DRAGON CRS-33           
1 65304U 25186A   26004.75849265  .00010439  00000+0  19662-3 0  9991
2 65304  51.6325  28.5008 0007565 340.7123  19.3578 15.49095636   111
PROGRESS-MS 32          
1 65586U 25204A   26004.75849265  .00010439  00000+0  19662-3 0  9994
2 65586  51.6325  28.5008 0007565 340.7123  19.3578 15.49095636   270
