CCSDS_OMM_VERS = 2.0
CREATION_DATE  = 
ORIGINATOR     = 

OBJECT_NAME    = ISS (ZARYA)
OBJECT_ID      = 1998-067A
CENTER_NAME    = EARTH
REF_FRAME      = TEME
TIME_SYSTEM    = UTC
MEAN_ELEMENT_THEORY = SGP/SGP4

EPOCH          = 2026-01-04T18:12:13.764096
MEAN_MOTION    = 15.49095636
ECCENTRICITY   = .0007565
INCLINATION    = 51.6325
RA_OF_ASC_NODE = 28.5008
ARG_OF_PERICENTER = 340.7123
MEAN_ANOMALY   = 19.3578

EPHEMERIS_TYPE = 0
CLASSIFICATION_TYPE = U
NORAD_CAT_ID   = 25544
ELEMENT_SET_NO = 999
REV_AT_EPOCH   = 54642
BSTAR          = .19662E-3
MEAN_MOTION_DOT = .10439E-3
MEAN_MOTION_DDOT = 0

CCSDS_OMM_VERS = 2.0
CREATION_DATE  = 
ORIGINATOR     = 

OBJECT_NAME    = CSS (TIANHE)
OBJECT_ID      = 2021-035A
CENTER_NAME    = EARTH
REF_FRAME      = TEME
TIME_SYSTEM    = UTC
MEAN_ELEMENT_THEORY = SGP/SGP4

EPOCH          = 2026-01-05T02:04:48.318240
MEAN_MOTION    = 15.60186031
ECCENTRICITY   = .0010812
INCLINATION    = 41.4650
RA_OF_ASC_NODE = 234.8649
ARG_OF_PERICENTER = 222.1039
MEAN_ANOMALY   = 137.8969

EPHEMERIS_TYPE = 0
CLASSIFICATION_TYPE = U
NORAD_CAT_ID   = 48274
ELEMENT_SET_NO = 999
REV_AT_EPOCH   = 26767
BSTAR          = .18879E-3
MEAN_MOTION_DOT = .15546E-3
MEAN_MOTION_DDOT = 0

CCSDS_OMM_VERS = 2.0
CREATION_DATE  = 
ORIGINATOR     = 

OBJECT_NAME    = ISS (NAUKA)
OBJECT_ID      = 2021-066A
CENTER_NAME    = EARTH
REF_FRAME      = TEME
TIME_SYSTEM    = UTC
MEAN_ELEMENT_THEORY = SGP/SGP4

EPOCH          = 2026-01-04T18:12:13.764960
MEAN_MOTION    = 15.49095636
ECCENTRICITY   = .0007565
INCLINATION    = 51.6325
RA_OF_ASC_NODE = 28.5008
ARG_OF_PERICENTER = 340.7123
MEAN_ANOMALY   = 19.3578

EPHEMERIS_TYPE = 0
CLASSIFICATION_TYPE = U
NORAD_CAT_ID   = 49044
ELEMENT_SET_NO = 999
REV_AT_EPOCH   = 23044
BSTAR          = .19661877E-3
MEAN_MOTION_DOT = .10439E-3
MEAN_MOTION_DDOT = 0

CCSDS_OMM_VERS = 2.0
CREATION_DATE  = 
ORIGINATOR     = 

OBJECT_NAME    = FREGAT DEB
OBJECT_ID      = 2011-037PF
CENTER_NAME    = EARTH
REF_FRAME      = TEME
TIME_SYSTEM    = UTC
MEAN_ELEMENT_THEORY = SGP/SGP4

EPOCH          = 2026-01-04T15:26:11.045760
MEAN_MOTION    = 12.35042644
ECCENTRICITY   = .0876295
INCLINATION    = 51.6484
RA_OF_ASC_NODE = 131.7222
ARG_OF_PERICENTER = 274.1689
MEAN_ANOMALY   = 75.9608

EPHEMERIS_TYPE = 0
CLASSIFICATION_TYPE = U
NORAD_CAT_ID   = 49271
ELEMENT_SET_NO = 999
REV_AT_EPOCH   = 20476
BSTAR          = .61383E-1
MEAN_MOTION_DOT = .28978E-3
MEAN_MOTION_DDOT = 0

CCSDS_OMM_VERS = 2.0
CREATION_DATE  = 
ORIGINATOR     = 

OBJECT_NAME    = CSS (WENTIAN)
OBJECT_ID      = 2022-085A
CENTER_NAME    = EARTH
REF_FRAME      = TEME
TIME_SYSTEM    = UTC
MEAN_ELEMENT_THEORY = SGP/SGP4

EPOCH          = 2026-01-04T23:00:27.190656
MEAN_MOTION    = 15.60180608
ECCENTRICITY   = .00107175
INCLINATION    = 41.4651
RA_OF_ASC_NODE = 235.6438
ARG_OF_PERICENTER = 221.5522
MEAN_ANOMALY   = 138.4503

EPHEMERIS_TYPE = 0
CLASSIFICATION_TYPE = U
NORAD_CAT_ID   = 53239
ELEMENT_SET_NO = 999
REV_AT_EPOCH   = 17384
BSTAR          = .17783547E-3
MEAN_MOTION_DOT = .14618E-3
MEAN_MOTION_DDOT = 0

CCSDS_OMM_VERS = 2.0
CREATION_DATE  = 
ORIGINATOR     = 

OBJECT_NAME    = CSS (MENGTIAN)
OBJECT_ID      = 2022-143A
CENTER_NAME    = EARTH
REF_FRAME      = TEME
TIME_SYSTEM    = UTC
MEAN_ELEMENT_THEORY = SGP/SGP4

EPOCH          = 2026-01-04T23:00:27.190656
MEAN_MOTION    = 15.60180608
ECCENTRICITY   = .00107175
INCLINATION    = 41.4651
RA_OF_ASC_NODE = 235.6438
ARG_OF_PERICENTER = 221.5522
MEAN_ANOMALY   = 138.4503

EPHEMERIS_TYPE = 0
CLASSIFICATION_TYPE = U
NORAD_CAT_ID   = 54216
ELEMENT_SET_NO = 999
REV_AT_EPOCH   = 15864
BSTAR          = .17783547E-3
MEAN_MOTION_DOT = .14618E-3
MEAN_MOTION_DDOT = 0

CCSDS_OMM_VERS = 2.0
CREATION_DATE  = 
ORIGINATOR     = 

OBJECT_NAME    = SHENZHOU-20 (SZ-20)
OBJECT_ID      = 2025-082A
CENTER_NAME    = EARTH
REF_FRAME      = TEME
TIME_SYSTEM    = UTC
MEAN_ELEMENT_THEORY = SGP/SGP4

EPOCH          = 2026-01-04T23:00:27.190656
MEAN_MOTION    = 15.60180608
ECCENTRICITY   = .00107175
INCLINATION    = 41.4651
RA_OF_ASC_NODE = 235.6438
ARG_OF_PERICENTER = 221.5522
MEAN_ANOMALY   = 138.4503

EPHEMERIS_TYPE = 0
CLASSIFICATION_TYPE = U
NORAD_CAT_ID   = 63632
ELEMENT_SET_NO = 999
REV_AT_EPOCH   = 25530
BSTAR          = .17783547E-3
MEAN_MOTION_DOT = .14618E-3
MEAN_MOTION_DDOT = 0

CCSDS_OMM_VERS = 2.0
CREATION_DATE  = 
ORIGINATOR     = 

OBJECT_NAME    = PROGRESS-MS 31
OBJECT_ID      = 2025-146A
CENTER_NAME    = EARTH
REF_FRAME      = TEME
TIME_SYSTEM    = UTC
MEAN_ELEMENT_THEORY = SGP/SGP4

EPOCH          = 2026-01-04T18:12:13.764960
MEAN_MOTION    = 15.49095636
ECCENTRICITY   = .0007565
INCLINATION    = 51.6325
RA_OF_ASC_NODE = 28.5008
ARG_OF_PERICENTER = 340.7123
MEAN_ANOMALY   = 19.3578

EPHEMERIS_TYPE = 0
CLASSIFICATION_TYPE = U
NORAD_CAT_ID   = 64751
ELEMENT_SET_NO = 999
REV_AT_EPOCH   = 675
BSTAR          = .19661877E-3
MEAN_MOTION_DOT = .10439E-3
MEAN_MOTION_DDOT = 0

CCSDS_OMM_VERS = 2.0
CREATION_DATE  = 
ORIGINATOR     = 

OBJECT_NAME    = TIANZHOU-9
OBJECT_ID      = 2025-149A
CENTER_NAME    = EARTH
REF_FRAME      = TEME
TIME_SYSTEM    = UTC
MEAN_ELEMENT_THEORY = SGP/SGP4

EPOCH          = 2026-01-04T23:00:27.190656
MEAN_MOTION    = 15.60180608
ECCENTRICITY   = .00107175
INCLINATION    = 41.4651
RA_OF_ASC_NODE = 235.6438
ARG_OF_PERICENTER = 221.5522
MEAN_ANOMALY   = 138.4503

EPHEMERIS_TYPE = 0
CLASSIFICATION_TYPE = U
NORAD_CAT_ID   = 64786
ELEMENT_SET_NO = 999
REV_AT_EPOCH   = 25530
BSTAR          = .17783547E-3
MEAN_MOTION_DOT = .14618E-3
MEAN_MOTION_DDOT = 0

CCSDS_OMM_VERS = 2.0
CREATION_DATE  = 
ORIGINATOR     = 

OBJECT_NAME    = CREW DRAGON 11
OBJECT_ID      = 2025-166A
CENTER_NAME    = EARTH
REF_FRAME      = TEME
TIME_SYSTEM    = UTC
MEAN_ELEMENT_THEORY = SGP/SGP4

EPOCH          = 2026-01-04T18:12:13.764960
MEAN_MOTION    = 15.49095636
ECCENTRICITY   = .0007565
INCLINATION    = 51.6325
RA_OF_ASC_NODE = 28.5008
ARG_OF_PERICENTER = 340.7123
MEAN_ANOMALY   = 19.3578

EPHEMERIS_TYPE = 0
CLASSIFICATION_TYPE = U
NORAD_CAT_ID   = 65077
ELEMENT_SET_NO = 999
REV_AT_EPOCH   = 214
BSTAR          = .19661877E-3
MEAN_MOTION_DOT = .10439E-3
MEAN_MOTION_DDOT = 0

CCSDS_OMM_VERS = 2.0
CREATION_DATE  = 
ORIGINATOR     = 

OBJECT_NAME    = DRAGON CRS-33
OBJECT_ID      = 2025-186A
CENTER_NAME    = EARTH
REF_FRAME      = TEME
TIME_SYSTEM    = UTC
MEAN_ELEMENT_THEORY = SGP/SGP4

EPOCH          = 2026-01-04T18:12:13.764960
MEAN_MOTION    = 15.49095636
ECCENTRICITY   = .0007565
INCLINATION    = 51.6325
RA_OF_ASC_NODE = 28.5008
ARG_OF_PERICENTER = 340.7123
MEAN_ANOMALY   = 19.3578

EPHEMERIS_TYPE = 0
CLASSIFICATION_TYPE = U
NORAD_CAT_ID   = 65304
ELEMENT_SET_NO = 999
REV_AT_EPOCH   = 11
BSTAR          = .19661877E-3
MEAN_MOTION_DOT = .10439E-3
MEAN_MOTION_DDOT = 0

CCSDS_OMM_VERS = 2.0
CREATION_DATE  = 
ORIGINATOR     = 

OBJECT_NAME    = PROGRESS-MS 32
OBJECT_ID      = 2025-204A
CENTER_NAME    = EARTH
REF_FRAME      = TEME
TIME_SYSTEM    = UTC
MEAN_ELEMENT_THEORY = SGP/SGP4

EPOCH          = 2026-01-04T18:12:13.764960
MEAN_MOTION    = 15.49095636
ECCENTRICITY   = .0007565
INCLINATION    = 51.6325
RA_OF_ASC_NODE = 28.5008
ARG_OF_PERICENTER = 340.7123
MEAN_ANOMALY   = 19.3578

EPHEMERIS_TYPE = 0
CLASSIFICATION_TYPE = U
NORAD_CAT_ID   = 65586
ELEMENT_SET_NO = 999
REV_AT_EPOCH   = 27
BSTAR          = .19661877E-3
MEAN_MOTION_DOT = .10439E-3
MEAN_MOTION_DDOT = 0

